[{"OBJECT_NAME":"TK-2","OBJECT_ID":"2022-031A","EPOCH":"2026-03-09T22:51:17.143200","MEAN_MOTION":15.02943491,"ECCENTRICITY":0.00164117,"INCLINATION":97.8366,"RA_OF_ASC_NODE":263.9365,"ARG_OF_PERICENTER":100.3205,"MEAN_ANOMALY":259.9871,"EPHEMERIS_TYPE":0,"CLASSIFICATION_TYPE":"U","NORAD_CAT_ID":52150,"ELEMENT_SET_NO":999,"REV_AT_EPOCH":21555,"BSTAR":0.00040164474,"MEAN_MOTION_DOT":5.349e-5,"MEAN_MOTION_DDOT":0},{"OBJECT_NAME":"STARLINK-4334","OBJECT_ID":"2022-105T","EPOCH":"2026-03-09T15:00:13.080096","MEAN_MOTION":15.05652455,"ECCENTRICITY":0.0002338,"INCLINATION":97.6033,"RA_OF_ASC_NODE":311.1978,"ARG_OF_PERICENTER":71.2278,"MEAN_ANOMALY":288.9203,"EPHEMERIS_TYPE":0,"CLASSIFICATION_TYPE":"U","NORAD_CAT_ID":53665,"ELEMENT_SET_NO":999,"REV_AT_EPOCH":19329,"BSTAR":7.4915e-6,"MEAN_MOTION_DOT":4.7e-7,"MEAN_MOTION_DDOT":0}]
